{"type":"FeatureCollection","name":"suining-base-roads-main-city","source":"OpenStreetMap contributors via Overpass API","generated_at":"2026-09-15T05:52:07Z","bbox":[117.88,33.86,118.01,33.96],"filter":"major roads; named tertiary/tertiary_link/unclassified/residential/living_street roads; clipped to map rectangle","features":[{"type":"Feature","id":"way/135798561","properties":{"osm_id":135798561,"name":"京岚线","highway":"trunk","ref":"G104"},"geometry":{"type":"LineString","coordinates":[[117.8893078,33.9114478],[117.8887898,33.9099209],[117.8884476,33.9083923],[117.8883498,33.9074726],[117.8882568,33.9065051],[117.888257,33.9057734],[117.8884736,33.8990193],[117.8886132,33.893593],[117.8886324,33.8929459],[117.888722,33.8914603],[117.8888383,33.8906142],[117.8889355,33.8900727],[117.8890412,33.8896884]]}},{"type":"Feature","id":"way/203847708","properties":{"osm_id":203847708,"highway":"primary"},"geometry":{"type":"LineString","coordinates":[[117.8884736,33.8990193],[117.8885944,33.8990238],[117.8939111,33.8990545],[117.8993618,33.8990617],[117.9081947,33.8991469],[117.9083484,33.8991758],[117.9117716,33.8998196],[117.9152906,33.9004814],[117.9211233,33.9015784]]}},{"type":"Feature","id":"way/216048475","properties":{"osm_id":216048475,"name":"淮徐高速","highway":"motorway","ref":"G2513"},"geometry":{"type":"LineString","coordinates":[[117.9811047,33.9515097],[117.98192,33.95135],[117.98418,33.95084],[117.98848,33.94965],[117.98982,33.94921],[117.99299,33.94803],[117.99479,33.94727],[117.9966,33.94645],[117.99834,33.94559],[118.00002,33.94462],[118.00125,33.944],[118.00771,33.94052],[118.0098,33.93947],[118.01,33.9393789]]}},{"type":"Feature","id":"way/238824513","properties":{"osm_id":238824513,"highway":"motorway_link"},"geometry":{"type":"LineString","coordinates":[[117.9496411,33.9530279],[117.9521613,33.952921],[117.9528981,33.952782],[117.9532995,33.9524616],[117.9534367,33.9520949],[117.9533757,33.9516819],[117.9532843,33.9515091],[117.953031,33.9512271],[117.9524205,33.9508389],[117.9518616,33.9506029],[117.9506353,33.9504325],[117.9504811,33.9504141]]}},{"type":"Feature","id":"way/238824514","properties":{"osm_id":238824514,"highway":"motorway_link"},"geometry":{"type":"LineString","coordinates":[[117.9606824,33.9531149],[117.9576471,33.9532717],[117.9569645,33.9534147],[117.9562818,33.9538379],[117.9559423,33.9540957],[117.9557393,33.9542522],[117.9554537,33.9543788],[117.9551626,33.9543923],[117.9549525,33.9543327],[117.9546956,33.9541896],[117.9545195,33.9539959],[117.9543758,33.9537038]]}},{"type":"Feature","id":"way/238824516","properties":{"osm_id":238824516,"highway":"motorway_link"},"geometry":{"type":"LineString","coordinates":[[117.9544459,33.9536874],[117.9546039,33.9539795],[117.9547566,33.9541449],[117.954965,33.954279],[117.9551806,33.9543327],[117.9554249,33.9543222],[117.955689,33.954209],[117.9558273,33.9540436],[117.9558956,33.9538215],[117.955874,33.9536412],[117.9557662,33.9534877],[117.9554806,33.953303],[117.9551105,33.953221],[117.9538567,33.9531593]]}},{"type":"Feature","id":"way/238824519","properties":{"osm_id":238824519,"highway":"motorway_link"},"geometry":{"type":"LineString","coordinates":[[117.9538746,33.9522807],[117.9544459,33.9536874]]}},{"type":"Feature","id":"way/238824522","properties":{"osm_id":238824522,"highway":"motorway_link"},"geometry":{"type":"LineString","coordinates":[[117.9543758,33.9537038],[117.9537937,33.9522956]]}},{"type":"Feature","id":"way/238824529","properties":{"osm_id":238824529,"name":"下邳大道","highway":"primary"},"geometry":{"type":"LineString","coordinates":[[117.88,33.9334337],[117.8834388,33.9335568],[117.8881132,33.9337136],[117.8900099,33.933761],[117.8910675,33.9337446],[117.8922743,33.933615],[117.8935591,33.9333645],[117.8951825,33.9329946],[117.8957339,33.9328847]]}},{"type":"Feature","id":"way/238824530","properties":{"osm_id":238824530,"highway":"motorway_link"},"geometry":{"type":"LineString","coordinates":[[117.9534215,33.9514754],[117.9535333,33.9516399],[117.953756,33.9520468],[117.9538746,33.9522807]]}},{"type":"Feature","id":"way/238824531","properties":{"osm_id":238824531,"highway":"motorway_link"},"geometry":{"type":"LineString","coordinates":[[117.9537937,33.9522956],[117.9536949,33.9520632],[117.9534668,33.9516668],[117.9532843,33.9515091]]}},{"type":"Feature","id":"way/238824535","properties":{"osm_id":238824535,"highway":"secondary"},"geometry":{"type":"LineString","coordinates":[[117.9595531,33.86],[117.9593432,33.8628651],[117.9593359,33.8629656],[117.9586335,33.8716891],[117.958628,33.8717579],[117.9582893,33.8756569],[117.9581317,33.8774705],[117.9577475,33.883162]]}},{"type":"Feature","id":"way/238824537","properties":{"osm_id":238824537,"highway":"motorway_link"},"geometry":{"type":"LineString","coordinates":[[117.9505084,33.9502958],[117.9506625,33.9503151],[117.9518971,33.9504469],[117.952517,33.9506745],[117.9531827,33.9511761],[117.9534215,33.9514754],[117.9541481,33.9521076],[117.9551643,33.9526344],[117.9559316,33.9528662],[117.957461,33.9530322]]}},{"type":"Feature","id":"way/244164681","properties":{"osm_id":244164681,"highway":"primary"},"geometry":{"type":"LineString","coordinates":[[117.9034043,33.9114072],[117.9034065,33.9112813],[117.9032994,33.9099246],[117.9033197,33.9092157],[117.9037625,33.9084072],[117.9040976,33.9079018],[117.9044469,33.9073602],[117.9068777,33.9024939],[117.9075553,33.901108],[117.9079815,33.8998863],[117.9081947,33.8991469],[117.9087529,33.8946199],[117.9092906,33.8898173],[117.9092947,33.889714],[117.9093775,33.8890132]]}},{"type":"Feature","id":"way/244164683","properties":{"osm_id":244164683,"highway":"secondary"},"geometry":{"type":"LineString","coordinates":[[117.9275985,33.9451903],[117.9158235,33.9446306],[117.9029554,33.9437866],[117.9031022,33.9416438],[117.9036451,33.9337154],[117.9037477,33.9312144],[117.9037523,33.9311014]]}},{"type":"Feature","id":"way/295166750","properties":{"osm_id":295166750,"highway":"primary"},"geometry":{"type":"LineString","coordinates":[[117.987183,33.8834584],[117.9871197,33.8841799],[117.9866195,33.8891392]]}},{"type":"Feature","id":"way/295166751","properties":{"osm_id":295166751,"highway":"secondary"},"geometry":{"type":"LineString","coordinates":[[117.949764,33.8889828],[117.9499147,33.888981],[117.9514291,33.8889597],[117.9567853,33.8888722],[117.9569287,33.8888624],[117.9618898,33.8891573],[117.9628543,33.8892125],[117.9780564,33.8900837],[117.9785714,33.89044],[117.9787193,33.8919076],[117.9790864,33.8942161],[117.9791506,33.896913],[117.9791536,33.8970387],[117.9791162,33.8999281],[117.9791368,33.9018235],[117.979143,33.9022477],[117.979177,33.9023196],[117.9792395,33.9023882]]}},{"type":"Feature","id":"way/295166752","properties":{"osm_id":295166752,"highway":"primary"},"geometry":{"type":"LineString","coordinates":[[117.9829922,33.9030661],[117.982959,33.902979],[117.9837747,33.9002005],[117.9840406,33.899296],[117.9843286,33.8982666],[117.9846425,33.8970814],[117.9846685,33.8969832],[117.9862093,33.8911644],[117.9863961,33.890019]]}},{"type":"Feature","id":"way/295166753","properties":{"osm_id":295166753,"name":"元府东路","highway":"primary"},"geometry":{"type":"LineString","coordinates":[[117.9561052,33.900764],[117.94922,33.8998241]]}},{"type":"Feature","id":"way/295166755","properties":{"osm_id":295166755,"highway":"secondary"},"geometry":{"type":"LineString","coordinates":[[117.9440956,33.9123338],[117.9440585,33.912587],[117.9438166,33.914276],[117.9434616,33.916788],[117.9430664,33.9197629],[117.9426543,33.9224452],[117.9421064,33.9255708],[117.9418359,33.9269892]]}},{"type":"Feature","id":"way/295166760","properties":{"osm_id":295166760,"highway":"secondary"},"geometry":{"type":"LineString","coordinates":[[117.9311146,33.9289494],[117.9311222,33.9288211],[117.9313194,33.9254359],[117.9313118,33.9251512],[117.9312897,33.9243275],[117.9305151,33.9212801],[117.9303027,33.9198815],[117.9303,33.9166991],[117.9302165,33.9137139],[117.9302155,33.9135457],[117.9301868,33.9124249],[117.9301939,33.9122064]]}},{"type":"Feature","id":"way/295166762","properties":{"osm_id":295166762,"highway":"primary"},"geometry":{"type":"LineString","coordinates":[[117.9793725,33.9024321],[117.9794851,33.9025055],[117.9795678,33.9026025],[117.9796166,33.902729],[117.9796146,33.9028617],[117.9795619,33.9029871],[117.9794727,33.9030853],[117.9793527,33.9031573],[117.9792124,33.9031969],[117.9790643,33.9032004],[117.9789215,33.9031676],[117.9787967,33.9031013],[117.9787106,33.9030201],[117.9786528,33.9029231],[117.9786274,33.9028169],[117.9786361,33.902709],[117.978699,33.9025753],[117.9788046,33.9024734],[117.9789439,33.9024051],[117.9791024,33.9023774],[117.9792395,33.9023882],[117.9793725,33.9024321]]}},{"type":"Feature","id":"way/295167273","properties":{"osm_id":295167273,"highway":"secondary"},"geometry":{"type":"LineString","coordinates":[[117.9443928,33.891879],[117.9443928,33.8919527],[117.9444127,33.8926141],[117.9444125,33.8937239],[117.9444122,33.8949459],[117.9444109,33.8950227],[117.9443911,33.8971778]]}},{"type":"Feature","id":"way/307181281","properties":{"osm_id":307181281,"highway":"primary"},"geometry":{"type":"LineString","coordinates":[[117.9866195,33.8891392],[117.9865282,33.8900415]]}},{"type":"Feature","id":"way/307181282","properties":{"osm_id":307181282,"highway":"primary"},"geometry":{"type":"LineString","coordinates":[[117.9863961,33.890019],[117.9864717,33.8891299]]}},{"type":"Feature","id":"way/307181283","properties":{"osm_id":307181283,"highway":"primary"},"geometry":{"type":"LineString","coordinates":[[117.9864717,33.8891299],[117.9870023,33.884176],[117.9870841,33.8834589]]}},{"type":"Feature","id":"way/307181284","properties":{"osm_id":307181284,"highway":"primary"},"geometry":{"type":"LineString","coordinates":[[117.9865282,33.8900415],[117.9863498,33.8911522],[117.98478,33.8970014],[117.9847459,33.8971056],[117.9844381,33.8982984],[117.9841425,33.8993282],[117.9838971,33.9002267],[117.9830876,33.902985],[117.9829922,33.9030661]]}},{"type":"Feature","id":"way/307181558","properties":{"osm_id":307181558,"highway":"secondary"},"geometry":{"type":"LineString","coordinates":[[117.886894,33.8895394],[117.889076,33.8895895],[117.8892119,33.889597],[117.9002607,33.8897074],[117.9048316,33.8897576],[117.9092947,33.889714],[117.9094259,33.889713],[117.9155798,33.8898878],[117.9170325,33.8898673],[117.9296908,33.8894781],[117.9373261,33.8892967],[117.9411956,33.8892048],[117.9442854,33.8890418],[117.9488169,33.8889732]]}},{"type":"Feature","id":"way/307181559","properties":{"osm_id":307181559,"highway":"secondary"},"geometry":{"type":"LineString","coordinates":[[117.9488169,33.8889732],[117.949764,33.8889828]]}},{"type":"Feature","id":"way/320472350","properties":{"osm_id":320472350,"name":"淮徐高速","highway":"motorway","ref":"G2513"},"geometry":{"type":"LineString","coordinates":[[118.01,33.9395071],[118.0098677,33.9395673],[118.007782,33.9406152],[118.001322,33.9440951],[118.0000939,33.9447142],[117.9984134,33.9456845],[117.9966671,33.9465476],[117.9948532,33.9473694],[117.9930485,33.9481313],[117.9898727,33.9493135],[117.9885264,33.9497556],[117.9842192,33.9509475],[117.9819537,33.9514588],[117.9811243,33.9516254]]}},{"type":"Feature","id":"way/332343241","properties":{"osm_id":332343241,"name":"沈阳南路","highway":"tertiary"},"geometry":{"type":"LineString","coordinates":[[117.9152906,33.9004814],[117.9163702,33.8974351],[117.9165696,33.8968123],[117.9166535,33.8961284],[117.9167109,33.8953642],[117.9168477,33.8935412],[117.9169946,33.890904],[117.9170288,33.8899682],[117.9170325,33.8898673]]}},{"type":"Feature","id":"way/417907138","properties":{"osm_id":417907138,"name":"元府东路","highway":"primary"},"geometry":{"type":"LineString","coordinates":[[117.9795678,33.9026025],[117.9798136,33.9026473],[117.9800393,33.9027146],[117.9803703,33.9027979],[117.9810075,33.902854],[117.9815098,33.9028972],[117.982959,33.902979],[117.9830876,33.902985],[117.9838008,33.9030374]]}},{"type":"Feature","id":"way/417907149","properties":{"osm_id":417907149,"name":"元府东路","highway":"primary"},"geometry":{"type":"LineString","coordinates":[[117.9837388,33.9031253],[117.9829922,33.9030661],[117.982283,33.9030148],[117.9815297,33.9029823],[117.9803542,33.9029193],[117.9799415,33.9028894],[117.9797695,33.9029148],[117.9795619,33.9029871]]}},{"type":"Feature","id":"way/417907157","properties":{"osm_id":417907157,"name":"永昶路","highway":"secondary"},"geometry":{"type":"LineString","coordinates":[[117.8949026,33.9191966],[117.895137,33.9191473],[117.8960088,33.918999],[117.896928,33.9189195],[117.8976755,33.9189335],[117.8981807,33.9189824],[117.8983878,33.9190024],[117.8993063,33.9191339],[117.9032455,33.9197961],[117.9044256,33.9199618],[117.9054207,33.9200042],[117.9063407,33.9199307],[117.9086707,33.9196169],[117.9092573,33.9195657],[117.9102085,33.9195535],[117.9114635,33.9195777],[117.9139506,33.9196256],[117.9165538,33.919674],[117.9175628,33.9196001],[117.918979,33.9193865],[117.9199982,33.9192974],[117.9212156,33.9192897],[117.9226891,33.9192924],[117.9237426,33.9195111],[117.9250565,33.9197615],[117.9264355,33.9200987],[117.9305151,33.9212801],[117.9323933,33.9217728],[117.9325617,33.921817],[117.9333531,33.9219945],[117.9341546,33.922103],[117.935294,33.9222355],[117.9355228,33.9222621],[117.936562,33.9223084],[117.9405372,33.9224279]]}},{"type":"Feature","id":"way/417907158","properties":{"osm_id":417907158,"highway":"primary"},"geometry":{"type":"LineString","coordinates":[[117.956968,33.8882867],[117.9569287,33.8888624],[117.9569237,33.8889558],[117.9567662,33.8913737],[117.9566151,33.8939944],[117.9564585,33.8970912],[117.9562397,33.9007025],[117.9562355,33.9007856],[117.9560891,33.9028111],[117.9558747,33.9055171],[117.9557081,33.9080872],[117.9554271,33.9118183],[117.9554227,33.9119192],[117.9554152,33.9120908]]}},{"type":"Feature","id":"way/417907160","properties":{"osm_id":417907160,"highway":"primary"},"geometry":{"type":"LineString","coordinates":[[117.9095729,33.888182],[117.9095095,33.8890188]]}},{"type":"Feature","id":"way/417907166","properties":{"osm_id":417907166,"highway":"secondary"},"geometry":{"type":"LineString","coordinates":[[117.9789439,33.9024051],[117.979014,33.9023351],[117.9790516,33.9022651],[117.9790564,33.9018166],[117.9790179,33.8999242],[117.979027,33.8970335],[117.9790261,33.8969753],[117.9790253,33.8969175],[117.9789857,33.8942212],[117.9785763,33.891917],[117.9784758,33.8904828],[117.9780169,33.8901653],[117.9628553,33.8892964],[117.9618907,33.8892411],[117.9569237,33.8889558],[117.9567789,33.888959],[117.9514331,33.8890433],[117.9499037,33.8890816],[117.9497978,33.8890718]]}},{"type":"Feature","id":"way/417907168","properties":{"osm_id":417907168,"highway":"secondary"},"geometry":{"type":"LineString","coordinates":[[117.9497978,33.8890718],[117.9488202,33.8890739]]}},{"type":"Feature","id":"way/417907173","properties":{"osm_id":417907173,"name":"枣睢线","highway":"primary","ref":"S612;S251"},"geometry":{"type":"LineString","coordinates":[[118.0079632,33.9059972],[118.0078444,33.9065635],[118.0076299,33.9076835],[118.0072829,33.9088591],[118.005621,33.91297],[118.0055852,33.9130579],[118.0048718,33.9147702],[118.0039537,33.9169738],[118.0016164,33.9228108],[117.9999964,33.9253026],[117.9983103,33.9269593],[117.9965979,33.9280527],[117.9955832,33.9285838],[117.9936744,33.9294435],[117.9914016,33.9299267],[117.9884311,33.9303565],[117.9774448,33.9317096],[117.9716443,33.9317845],[117.9715001,33.9317864],[117.9669756,33.9314685],[117.9624487,33.9311504],[117.9578783,33.9308292],[117.9531607,33.9305086],[117.952964,33.9304987],[117.9501947,33.9302666],[117.9471617,33.9299788],[117.9459526,33.9298641],[117.9419848,33.9291585],[117.94146,33.9290792],[117.9413189,33.9290676],[117.9395214,33.9288564],[117.937718,33.9287704],[117.9352626,33.9287704],[117.9332473,33.9288389],[117.9312489,33.9289449],[117.9311146,33.9289494],[117.9310071,33.9289523],[117.9256623,33.9291362],[117.9221573,33.9292497],[117.9178068,33.9294487],[117.9164833,33.9294939],[117.9136478,33.9295906],[117.9111407,33.929529],[117.9110085,33.9295258],[117.9101227,33.9294415],[117.9098011,33.9294014],[117.9090634,33.9293094],[117.9080551,33.9291106],[117.9068761,33.9288326],[117.9049997,33.9282329],[117.9024758,33.9270626],[117.9003724,33.9257237],[117.8992036,33.9247202],[117.8981038,33.9236883],[117.8978991,33.9234679],[117.8948484,33.9196525],[117.8945568,33.9193493],[117.8944607,33.9192227],[117.8916494,33.915501],[117.8912346,33.9149187],[117.8906926,33.9141444]]}},{"type":"Feature","id":"way/417907175","properties":{"osm_id":417907175,"highway":"primary"},"geometry":{"type":"LineString","coordinates":[[117.9552804,33.9120968],[117.9553011,33.9119138],[117.955312,33.9118175],[117.9555775,33.9080739],[117.955709,33.9054993],[117.9559154,33.902846],[117.9561052,33.900764],[117.9561098,33.9006855],[117.9563217,33.8970894],[117.9564874,33.8940037],[117.9566538,33.8913705],[117.9567789,33.888959],[117.9567853,33.8888722],[117.9568241,33.8882714]]}},{"type":"Feature","id":"way/417907178","properties":{"osm_id":417907178,"highway":"secondary"},"geometry":{"type":"LineString","coordinates":[[117.9488202,33.8890739],[117.9484773,33.889086],[117.9472755,33.8891283],[117.9442909,33.8891487],[117.9427294,33.8892692],[117.9411978,33.8893056],[117.941181,33.889306],[117.9387354,33.8893641],[117.9373228,33.8893977],[117.9343349,33.8894686],[117.9334974,33.8894885],[117.9297356,33.8895779],[117.9296934,33.8895789],[117.9280065,33.8896308],[117.9253116,33.8897136],[117.9170288,33.8899682],[117.9155394,33.8899841],[117.90943,33.8898175],[117.9092906,33.8898173],[117.9048315,33.8898584],[117.9002545,33.8898081],[117.8891789,33.8896872],[117.8890412,33.8896884],[117.8868829,33.8896557]]}},{"type":"Feature","id":"way/417907180","properties":{"osm_id":417907180,"name":"京岚线","highway":"trunk","ref":"G104"},"geometry":{"type":"LineString","coordinates":[[117.8891789,33.8896872],[117.889064,33.8901118],[117.8889481,33.8906531],[117.8888357,33.8914674],[117.8887721,33.8928567],[117.8887493,33.8935739],[117.8885944,33.8990238],[117.88847,33.9022935],[117.888393,33.9057785],[117.8883896,33.9065404],[117.8884552,33.9074542],[117.8885663,33.9083679],[117.8889011,33.9099292],[117.8892652,33.9109661],[117.8894389,33.9114429]]}},{"type":"Feature","id":"way/430027759","properties":{"osm_id":430027759,"name":"枣睢线","highway":"primary","ref":"S251"},"geometry":{"type":"LineString","coordinates":[[117.8801267,33.96],[117.88,33.9581948]]}},{"type":"Feature","id":"way/430027780","properties":{"osm_id":430027780,"name":"枣睢线","highway":"primary","ref":"S251"},"geometry":{"type":"LineString","coordinates":[[117.88,33.956497],[117.8802483,33.96]]}},{"type":"Feature","id":"way/434332274","properties":{"osm_id":434332274,"name":"沈阳北路","highway":"tertiary"},"geometry":{"type":"LineString","coordinates":[[117.9113955,33.9114948],[117.9114183,33.9113819],[117.9122772,33.9090374],[117.9127577,33.9075248],[117.9145861,33.9024743],[117.9152906,33.9004814]]}},{"type":"Feature","id":"way/464269716","properties":{"osm_id":464269716,"highway":"secondary"},"geometry":{"type":"LineString","coordinates":[[117.9443995,33.8916832],[117.944413,33.8915117],[117.9442909,33.8891487],[117.9442854,33.8890418]]}},{"type":"Feature","id":"way/464269718","properties":{"osm_id":464269718,"highway":"secondary"},"geometry":{"type":"LineString","coordinates":[[117.9443928,33.891879],[117.9443995,33.8916832]]}},{"type":"Feature","id":"way/464269796","properties":{"osm_id":464269796,"highway":"primary"},"geometry":{"type":"LineString","coordinates":[[117.9485022,33.8997707],[117.9483569,33.8997606],[117.9477987,33.8997415],[117.9461423,33.8997793],[117.9457991,33.8997872],[117.9449592,33.8998064],[117.9443152,33.8998211],[117.9442357,33.8998224],[117.9433417,33.8998368],[117.9425264,33.8998499],[117.9423471,33.8998521]]}},{"type":"Feature","id":"way/464269801","properties":{"osm_id":464269801,"name":"元府西路","highway":"primary"},"geometry":{"type":"LineString","coordinates":[[117.9339141,33.8999855],[117.9337075,33.8999868],[117.9315701,33.9000008],[117.9302775,33.8998851],[117.9301081,33.8998699],[117.9297563,33.8998384],[117.9280798,33.8997268],[117.9279932,33.8997211],[117.9266951,33.8996347],[117.925916,33.8995828],[117.9251182,33.8996628],[117.9246595,33.8998043],[117.9244822,33.8998589],[117.9221214,33.9010675],[117.9211233,33.9015784]]}},{"type":"Feature","id":"way/464269803","properties":{"osm_id":464269803,"highway":"primary"},"geometry":{"type":"LineString","coordinates":[[117.9423471,33.8998521],[117.9420564,33.8998565]]}},{"type":"Feature","id":"way/464269806","properties":{"osm_id":464269806,"highway":"secondary"},"geometry":{"type":"LineString","coordinates":[[117.9442829,33.9022094],[117.9442807,33.9024446]]}},{"type":"Feature","id":"way/464269808","properties":{"osm_id":464269808,"highway":"secondary"},"geometry":{"type":"LineString","coordinates":[[117.9443911,33.8971778],[117.9443521,33.8983968],[117.9443152,33.8998211],[117.944307,33.9006868],[117.9442982,33.9016192],[117.944287,33.9020898],[117.9442843,33.9021512],[117.9442829,33.9022094]]}},{"type":"Feature","id":"way/464271047","properties":{"osm_id":464271047,"name":"汇金路","highway":"tertiary"},"geometry":{"type":"LineString","coordinates":[[117.941979,33.9255621],[117.9421064,33.9255708],[117.9530221,33.9257044],[117.9531536,33.9257053],[117.9536235,33.9257084],[117.9538212,33.9257098],[117.954205,33.9258463],[117.9558382,33.9262319],[117.9566946,33.9263507],[117.9717464,33.926469],[117.979061,33.9265431]]}},{"type":"Feature","id":"way/464275929","properties":{"osm_id":464275929,"name":"京岚线","highway":"trunk","ref":"G104"},"geometry":{"type":"LineString","coordinates":[[117.8866412,33.915],[117.8875036,33.9149169],[117.8884595,33.9147353],[117.8891841,33.9145484],[117.8898214,33.9143041],[117.8906161,33.9139994],[117.8907414,33.9139563]]}},{"type":"Feature","id":"way/464275930","properties":{"osm_id":464275930,"name":"京岚线","highway":"trunk","ref":"G104"},"geometry":{"type":"LineString","coordinates":[[117.8861891,33.9150435],[117.8866412,33.915]]}},{"type":"Feature","id":"way/464275931","properties":{"osm_id":464275931,"name":"京岚线","highway":"trunk","ref":"G104"},"geometry":{"type":"LineString","coordinates":[[117.8866238,33.9151504],[117.8862096,33.9151903]]}},{"type":"Feature","id":"way/464275932","properties":{"osm_id":464275932,"name":"京岚线","highway":"trunk","ref":"G104"},"geometry":{"type":"LineString","coordinates":[[117.8908187,33.9140937],[117.8906926,33.9141444],[117.8898427,33.9144299],[117.8892844,33.9146343],[117.8885946,33.914815],[117.8880284,33.9149438],[117.8874841,33.9150406],[117.8866238,33.9151504]]}},{"type":"Feature","id":"way/464275939","properties":{"osm_id":464275939,"name":"永昶路","highway":"secondary"},"geometry":{"type":"LineString","coordinates":[[117.9410359,33.922433],[117.9425093,33.9224429],[117.9426543,33.9224452],[117.9486716,33.9225593],[117.9525395,33.92252],[117.9534636,33.9223433],[117.9540448,33.9221688]]}},{"type":"Feature","id":"way/464275940","properties":{"osm_id":464275940,"highway":"secondary"},"geometry":{"type":"LineString","coordinates":[[117.9405372,33.9224279],[117.9410359,33.922433]]}},{"type":"Feature","id":"way/464281702","properties":{"osm_id":464281702,"highway":"primary"},"geometry":{"type":"LineString","coordinates":[[117.9842175,33.9030858],[117.9862513,33.9033344],[117.9883269,33.9036028],[117.9886691,33.903637],[117.9907594,33.9038464],[117.9922227,33.9039872],[117.9966604,33.9045187],[117.999004,33.9047945],[118.0068183,33.9057637],[118.0078375,33.9058829]]}},{"type":"Feature","id":"way/464281703","properties":{"osm_id":464281703,"highway":"primary"},"geometry":{"type":"LineString","coordinates":[[117.9838008,33.9030374],[117.9842175,33.9030858]]}},{"type":"Feature","id":"way/464281704","properties":{"osm_id":464281704,"highway":"primary"},"geometry":{"type":"LineString","coordinates":[[117.984211,33.9031716],[117.9837388,33.9031253]]}},{"type":"Feature","id":"way/464281705","properties":{"osm_id":464281705,"highway":"primary"},"geometry":{"type":"LineString","coordinates":[[118.007826,33.9059798],[118.006886,33.9058701],[117.9989961,33.9049198],[117.99734,33.9047214],[117.9923086,33.9041187],[117.9921807,33.9041055],[117.9907431,33.9039567],[117.9887065,33.9037527],[117.9883338,33.9037154],[117.9862386,33.9034296],[117.984211,33.9031716]]}},{"type":"Feature","id":"way/464281714","properties":{"osm_id":464281714,"name":"元府东路","highway":"primary"},"geometry":{"type":"LineString","coordinates":[[117.9626951,33.901684],[117.9628715,33.9016908],[117.9689319,33.9021169],[117.9729472,33.9023761],[117.9780725,33.9026814],[117.9782473,33.9026937],[117.9784162,33.9026573],[117.9786246,33.9025671],[117.9788046,33.9024734]]}},{"type":"Feature","id":"way/464281715","properties":{"osm_id":464281715,"highway":"secondary_link"},"geometry":{"type":"LineString","coordinates":[[117.9782519,33.9031093],[117.9782648,33.9030185],[117.9782338,33.902911],[117.9780583,33.9027489]]}},{"type":"Feature","id":"way/464281718","properties":{"osm_id":464281718,"name":"乐园北路","highway":"secondary"},"geometry":{"type":"LineString","coordinates":[[117.9716439,33.931667],[117.9717419,33.9296593],[117.9717267,33.9272799],[117.9717464,33.926469],[117.9718555,33.9219679],[117.9720606,33.9170408],[117.9721418,33.9145876],[117.9721899,33.9127145],[117.9722074,33.9120353],[117.9722092,33.9119443]]}},{"type":"Feature","id":"way/740855956","properties":{"osm_id":740855956,"name":"京岚线","highway":"trunk","ref":"G104"},"geometry":{"type":"LineString","coordinates":[[117.9109894,33.86],[117.9109205,33.8619706],[117.9108013,33.8651874],[117.910687,33.8681753],[117.9106207,33.8699097],[117.9102495,33.879613],[117.9100381,33.8828892],[117.9100282,33.8830115]]}},{"type":"Feature","id":"way/740855957","properties":{"osm_id":740855957,"highway":"primary","ref":"S325"},"geometry":{"type":"LineString","coordinates":[[117.9100381,33.8828892],[117.9216376,33.8829761],[117.9291128,33.8830367],[117.9343056,33.8830519],[117.9435366,33.883079],[117.9504331,33.8831354],[117.9577475,33.883162],[117.964488,33.8832182],[117.9728067,33.8832988],[117.9743779,33.8832735],[117.9776314,33.8832985],[117.9870919,33.8833551]]}},{"type":"Feature","id":"way/740855958","properties":{"osm_id":740855958,"highway":"primary","ref":"S325"},"geometry":{"type":"LineString","coordinates":[[117.9870841,33.8834589],[117.9776341,33.8834109],[117.9742439,33.8833936],[117.9727714,33.8834054],[117.9642794,33.8833449],[117.9577826,33.8832575],[117.957663,33.8832571],[117.9504339,33.8832324],[117.9435757,33.883196],[117.9100282,33.8830115]]}},{"type":"Feature","id":"way/740855960","properties":{"osm_id":740855960,"name":"枣睢线","highway":"primary","ref":"S612;S251"},"geometry":{"type":"LineString","coordinates":[[117.8908187,33.9140937],[117.8910287,33.9144312],[117.8915646,33.9151728],[117.8919826,33.9157771],[117.8946584,33.91918],[117.8947382,33.9192742],[117.8963268,33.9213372],[117.8979808,33.9233792],[117.8992599,33.9246401],[117.9004376,33.9256183],[117.9024744,33.9269763],[117.9050016,33.9281418],[117.9068931,33.9287398],[117.9080795,33.9290048],[117.9090443,33.9292006],[117.9101009,33.9293449],[117.9110679,33.9294353],[117.9135674,33.9295127],[117.9164884,33.9293892],[117.9178291,33.9293272],[117.9220776,33.9291651],[117.9256326,33.9290215],[117.9310366,33.9288233],[117.9311222,33.9288211],[117.931276,33.9288179],[117.9332736,33.9287411],[117.9352827,33.9286876],[117.9377326,33.9286845],[117.9395195,33.9287615],[117.941376,33.9289685],[117.9414849,33.9289828],[117.9420254,33.9290655],[117.9459547,33.9297568],[117.9472101,33.9298759],[117.952883,33.9303102],[117.9529939,33.930318],[117.95319,33.9303318],[117.9714335,33.9316707],[117.9716439,33.931667],[117.9773834,33.9315673],[117.9883482,33.9302168],[117.9913604,33.9298383],[117.9935891,33.929346],[117.9952831,33.9286155],[117.9954547,33.9285415],[117.9964443,33.9279369],[117.9981714,33.9269429],[117.9989553,33.9261798],[117.999836,33.9253226],[118.0015542,33.9227124],[118.0038469,33.9169733],[118.0054841,33.9130354],[118.0055195,33.9129483],[118.0065941,33.910302],[118.0071729,33.9088373],[118.0075153,33.9076822],[118.007724,33.9065885],[118.007826,33.9059798]]}},{"type":"Feature","id":"way/828018919","properties":{"osm_id":828018919,"highway":"primary"},"geometry":{"type":"LineString","coordinates":[[117.9095095,33.8890188],[117.9094259,33.889713],[117.90943,33.8898175],[117.9089095,33.8946346],[117.9083504,33.8991689],[117.9083484,33.8991758],[117.9081339,33.8999197],[117.9077044,33.9011509],[117.9070235,33.9025435],[117.9045718,33.9073653],[117.9038492,33.9084363],[117.9034195,33.9092115],[117.9033932,33.9098948],[117.9034962,33.9112824],[117.9034043,33.9114072]]}},{"type":"Feature","id":"way/828018920","properties":{"osm_id":828018920,"highway":"primary"},"geometry":{"type":"LineString","coordinates":[[117.9100282,33.8830115],[117.9098523,33.8851461],[117.9095729,33.888182]]}},{"type":"Feature","id":"way/831637080","properties":{"osm_id":831637080,"name":"元府东路","highway":"primary"},"geometry":{"type":"LineString","coordinates":[[117.9787967,33.9031013],[117.9785563,33.9030133],[117.9784338,33.9028948],[117.9783414,33.9028288],[117.9780583,33.9027489],[117.9729413,33.9024518],[117.9689333,33.9021954],[117.9664816,33.9020211],[117.9628707,33.9017794],[117.9626763,33.9017664]]}},{"type":"Feature","id":"way/832078258","properties":{"osm_id":832078258,"highway":"secondary"},"geometry":{"type":"LineString","coordinates":[[117.9417944,33.9272351],[117.9414849,33.9289828],[117.94146,33.9290792]]}},{"type":"Feature","id":"way/832078259","properties":{"osm_id":832078259,"highway":"secondary"},"geometry":{"type":"LineString","coordinates":[[117.9418359,33.9269892],[117.9417944,33.9272351]]}},{"type":"Feature","id":"way/832078260","properties":{"osm_id":832078260,"highway":"secondary"},"geometry":{"type":"LineString","coordinates":[[117.944128,33.9120401],[117.9440956,33.9123338]]}},{"type":"Feature","id":"way/832078261","properties":{"osm_id":832078261,"highway":"secondary"},"geometry":{"type":"LineString","coordinates":[[117.9442807,33.9024446],[117.9442949,33.9039541],[117.944305,33.9068429],[117.9442609,33.9077711],[117.9441574,33.9117332],[117.9441466,33.9118324],[117.944128,33.9120401]]}},{"type":"Feature","id":"way/832085480","properties":{"osm_id":832085480,"highway":"primary"},"geometry":{"type":"LineString","coordinates":[[117.9093775,33.8890132],[117.9094691,33.8881679]]}},{"type":"Feature","id":"way/832085481","properties":{"osm_id":832085481,"highway":"primary"},"geometry":{"type":"LineString","coordinates":[[117.9094691,33.8881679],[117.9097243,33.8851306],[117.9098527,33.8830072]]}},{"type":"Feature","id":"way/832474423","properties":{"osm_id":832474423,"highway":"primary","ref":"S325;S251;S612"},"geometry":{"type":"LineString","coordinates":[[118.0029005,33.8879717],[118.0038848,33.8891897],[118.0041933,33.8896528],[118.0044379,33.8900201],[118.0050354,33.8910839],[118.0051323,33.891342]]}},{"type":"Feature","id":"way/832474424","properties":{"osm_id":832474424,"highway":"primary","ref":"S325;S251;S612"},"geometry":{"type":"LineString","coordinates":[[118.0051323,33.891342],[118.0055374,33.8924508],[118.0058676,33.8937191],[118.0072763,33.9003182],[118.0077214,33.902447],[118.0078521,33.9031191],[118.0079292,33.9037735],[118.0079819,33.9045822],[118.0079747,33.905102],[118.007982,33.9059033],[118.0079632,33.9059972]]}},{"type":"Feature","id":"way/833499133","properties":{"osm_id":833499133,"highway":"primary","ref":"S325;S251;S612"},"geometry":{"type":"LineString","coordinates":[[118.00503,33.8914056],[118.0048621,33.8910353],[118.0042539,33.8899312],[118.0035871,33.8889692],[118.0028227,33.8880541]]}},{"type":"Feature","id":"way/833499134","properties":{"osm_id":833499134,"highway":"primary","ref":"S325;S251;S612"},"geometry":{"type":"LineString","coordinates":[[118.007826,33.9059798],[118.0078375,33.9058829],[118.00784,33.9052677],[118.0078459,33.9043581],[118.0078234,33.9037581],[118.0077448,33.9031735],[118.0076149,33.902455],[118.0071299,33.9003224],[118.0057437,33.8937448],[118.0054008,33.8923737],[118.00503,33.8914056]]}},{"type":"Feature","id":"way/834175988","properties":{"osm_id":834175988,"name":"元府西路","highway":"primary"},"geometry":{"type":"LineString","coordinates":[[117.9344425,33.8999744],[117.9339141,33.8999855]]}},{"type":"Feature","id":"way/834175989","properties":{"osm_id":834175989,"highway":"primary"},"geometry":{"type":"LineString","coordinates":[[117.9420564,33.8998565],[117.9399739,33.8998909],[117.9384022,33.8999115],[117.9363209,33.8999387],[117.9361761,33.8999406],[117.9346483,33.8999605],[117.9344425,33.8999744]]}},{"type":"Feature","id":"way/840833915","properties":{"osm_id":840833915,"highway":"secondary"},"geometry":{"type":"LineString","coordinates":[[117.9501843,33.8861526],[117.9501548,33.8866001],[117.9500878,33.8871345],[117.9500207,33.8875821],[117.9499456,33.8886107]]}},{"type":"Feature","id":"way/840833916","properties":{"osm_id":840833916,"highway":"secondary"},"geometry":{"type":"LineString","coordinates":[[117.9504331,33.8831354],[117.9504339,33.8832324],[117.9501843,33.8861526]]}},{"type":"Feature","id":"way/859754232","properties":{"osm_id":859754232,"name":"中央大街","highway":"primary"},"geometry":{"type":"LineString","coordinates":[[117.9554227,33.9119192],[117.9553011,33.9119138],[117.9536712,33.9119048],[117.9491007,33.9118688],[117.9441466,33.9118324],[117.9440554,33.9118321],[117.9389701,33.9117358],[117.9333521,33.9116938],[117.9301947,33.9116573],[117.9262533,33.9116176],[117.9212191,33.9115883],[117.918569,33.911564],[117.9167165,33.9115393],[117.9118999,33.9115021],[117.9113955,33.9114948],[117.9092576,33.9114657],[117.9034043,33.9114072],[117.8986678,33.9113602],[117.8982892,33.9113657],[117.8978968,33.9114064],[117.8975636,33.9114939],[117.8961312,33.9120622],[117.8934963,33.9130373],[117.8920503,33.9135875],[117.8914302,33.9138235],[117.8908187,33.9140937]]}},{"type":"Feature","id":"way/859754233","properties":{"osm_id":859754233,"name":"中央大街","highway":"primary"},"geometry":{"type":"LineString","coordinates":[[117.8907414,33.9139563],[117.8915747,33.9136419],[117.893527,33.9129052],[117.8960733,33.9119404],[117.8975081,33.911367],[117.8977238,33.911327],[117.8979702,33.9112911],[117.898324,33.911267],[117.8986734,33.911272],[117.9034065,33.9112813],[117.9034962,33.9112824],[117.9114183,33.9113819],[117.9119088,33.911379],[117.9167289,33.9114305],[117.9185691,33.9114439],[117.9212017,33.911471],[117.9262643,33.9115178],[117.9301993,33.9115379],[117.9333546,33.9115938],[117.9389803,33.9116362],[117.9440547,33.9117326],[117.9441574,33.9117332],[117.9491061,33.9117524],[117.9536848,33.9118055],[117.955312,33.9118175],[117.9554271,33.9118183]]}},{"type":"Feature","id":"way/859754234","properties":{"osm_id":859754234,"highway":"secondary"},"geometry":{"type":"LineString","coordinates":[[117.9801413,33.9219405],[117.9793567,33.9219357],[117.9718555,33.9219679],[117.9697764,33.9219001],[117.9629621,33.9217913],[117.957196,33.9216991],[117.9551917,33.9217951],[117.9542603,33.9220808],[117.9540448,33.9221688]]}},{"type":"Feature","id":"way/873221274","properties":{"osm_id":873221274,"highway":"secondary"},"geometry":{"type":"LineString","coordinates":[[117.88,33.8894912],[117.8800085,33.8894908],[117.8830798,33.8894843]]}},{"type":"Feature","id":"way/873221275","properties":{"osm_id":873221275,"highway":"secondary"},"geometry":{"type":"LineString","coordinates":[[117.8829066,33.8896085],[117.8800091,33.8896121],[117.88,33.8896125]]}},{"type":"Feature","id":"way/873221276","properties":{"osm_id":873221276,"highway":"secondary"},"geometry":{"type":"LineString","coordinates":[[117.8862781,33.8895302],[117.886894,33.8895394]]}},{"type":"Feature","id":"way/873221277","properties":{"osm_id":873221277,"highway":"secondary"},"geometry":{"type":"LineString","coordinates":[[117.8868829,33.8896557],[117.8862693,33.88965]]}},{"type":"Feature","id":"way/873221278","properties":{"osm_id":873221278,"highway":"secondary"},"geometry":{"type":"LineString","coordinates":[[117.8839364,33.8895076],[117.8862781,33.8895302]]}},{"type":"Feature","id":"way/873221279","properties":{"osm_id":873221279,"highway":"secondary"},"geometry":{"type":"LineString","coordinates":[[117.8862693,33.88965],[117.8837805,33.8896247]]}},{"type":"Feature","id":"way/873221280","properties":{"osm_id":873221280,"highway":"secondary"},"geometry":{"type":"LineString","coordinates":[[117.8830798,33.8894843],[117.8839364,33.8895076]]}},{"type":"Feature","id":"way/873221281","properties":{"osm_id":873221281,"highway":"secondary"},"geometry":{"type":"LineString","coordinates":[[117.8837805,33.8896247],[117.8829066,33.8896085]]}},{"type":"Feature","id":"way/873221291","properties":{"osm_id":873221291,"name":"京岚线","highway":"trunk","ref":"G104"},"geometry":{"type":"LineString","coordinates":[[117.9100282,33.8830115],[117.9098527,33.8830072],[117.9071168,33.8829576],[117.9000139,33.8829093],[117.8988103,33.8829466],[117.8977526,33.8830574],[117.8969361,33.8832296],[117.8961979,33.8833858],[117.8952809,33.883683],[117.8946225,33.8839221],[117.8937667,33.8843362],[117.8929539,33.8848347],[117.8922991,33.8852962],[117.8917606,33.8857278],[117.8909096,33.8866264],[117.8905382,33.8870626],[117.8902219,33.8875397],[117.8897641,33.8882596]]}},{"type":"Feature","id":"way/873221292","properties":{"osm_id":873221292,"name":"京岚线","highway":"trunk","ref":"G104"},"geometry":{"type":"LineString","coordinates":[[117.8897641,33.8882596],[117.8895356,33.8887476]]}},{"type":"Feature","id":"way/873221293","properties":{"osm_id":873221293,"name":"京岚线","highway":"trunk","ref":"G104"},"geometry":{"type":"LineString","coordinates":[[117.8896249,33.8882897],[117.8901122,33.8874702],[117.8904304,33.8869944],[117.8907833,33.8865571],[117.8916239,33.8857252],[117.892247,33.8851838],[117.8928779,33.8847609],[117.8937003,33.8842572],[117.8945316,33.8838465],[117.8953106,33.8835733],[117.8959054,33.883346],[117.896799,33.8831394],[117.8976809,33.8829663],[117.8988061,33.8828594],[117.9000188,33.8828253],[117.9071592,33.8828684],[117.9098621,33.8828882],[117.9100381,33.8828892]]}},{"type":"Feature","id":"way/873221294","properties":{"osm_id":873221294,"name":"京岚线","highway":"trunk","ref":"G104"},"geometry":{"type":"LineString","coordinates":[[117.8893804,33.8887761],[117.8896249,33.8882897]]}},{"type":"Feature","id":"way/873221298","properties":{"osm_id":873221298,"name":"淮徐高速","highway":"motorway","ref":"G2513"},"geometry":{"type":"LineString","coordinates":[[117.9186421,33.96],[117.9200754,33.9593209],[117.9216808,33.9585832],[117.9233594,33.9579032],[117.92503,33.9572686],[117.9272302,33.9564934],[117.9282986,33.9561588],[117.9291475,33.9558982],[117.9307494,33.9554441],[117.9323995,33.9550306],[117.9341544,33.9546172],[117.9366123,33.954135]]}},{"type":"Feature","id":"way/873221299","properties":{"osm_id":873221299,"name":"淮徐高速","highway":"motorway","ref":"G2513"},"geometry":{"type":"LineString","coordinates":[[117.9471166,33.9530775],[117.9475818,33.9530646]]}},{"type":"Feature","id":"way/873221301","properties":{"osm_id":873221301,"name":"淮徐高速","highway":"motorway","ref":"G2513"},"geometry":{"type":"LineString","coordinates":[[117.9475517,33.953192],[117.9471101,33.9532024]]}},{"type":"Feature","id":"way/874568130","properties":{"osm_id":874568130,"highway":"secondary"},"geometry":{"type":"LineString","coordinates":[[117.9496378,33.9579425],[117.9492635,33.9598244],[117.9492223,33.96]]}},{"type":"Feature","id":"way/874568171","properties":{"osm_id":874568171,"name":"淮徐高速","highway":"motorway","ref":"G2513"},"geometry":{"type":"LineString","coordinates":[[117.9475818,33.9530646],[117.9484251,33.9530438],[117.9496411,33.9530279],[117.957461,33.9530322],[117.9606875,33.9530053],[117.9675801,33.9529842],[117.9693148,33.9529479]]}},{"type":"Feature","id":"way/874568172","properties":{"osm_id":874568172,"name":"淮徐高速","highway":"motorway","ref":"G2513"},"geometry":{"type":"LineString","coordinates":[[117.98002,33.95173],[117.9811047,33.9515097]]}},{"type":"Feature","id":"way/874568173","properties":{"osm_id":874568173,"name":"淮徐高速","highway":"motorway","ref":"G2513"},"geometry":{"type":"LineString","coordinates":[[117.9693044,33.953063],[117.9675995,33.9530987],[117.9606824,33.9531149],[117.9574769,33.9531361],[117.9538567,33.9531593],[117.9484328,33.953194],[117.9475517,33.953192]]}},{"type":"Feature","id":"way/874568174","properties":{"osm_id":874568174,"name":"淮徐高速","highway":"motorway","ref":"G2513"},"geometry":{"type":"LineString","coordinates":[[117.9811243,33.9516254],[117.9800487,33.9518398]]}},{"type":"Feature","id":"way/877508257","properties":{"osm_id":877508257,"highway":"primary_link"},"geometry":{"type":"LineString","coordinates":[[118.0079747,33.905102],[118.0079909,33.9052842],[118.0080194,33.9055306],[118.00806,33.9056689],[118.0081373,33.9057836],[118.0082308,33.9058612],[118.0085539,33.9059782]]}},{"type":"Feature","id":"way/877508258","properties":{"osm_id":877508258,"highway":"primary_link"},"geometry":{"type":"LineString","coordinates":[[118.0088761,33.9061178],[118.0084544,33.9061109],[118.0082308,33.9061412],[118.0080888,33.9061916],[118.0079625,33.9062759],[118.0078444,33.9065635]]}},{"type":"Feature","id":"way/877508259","properties":{"osm_id":877508259,"highway":"primary_link"},"geometry":{"type":"LineString","coordinates":[[118.0068183,33.9057637],[118.0072261,33.9057714],[118.0073985,33.9057621],[118.007499,33.9057161],[118.0076169,33.9056588],[118.0076941,33.9055812],[118.0077711,33.9055068],[118.00784,33.9052677]]}},{"type":"Feature","id":"way/877508260","properties":{"osm_id":877508260,"highway":"primary_link"},"geometry":{"type":"LineString","coordinates":[[118.007724,33.9065885],[118.0076574,33.9063505],[118.0076047,33.9062189],[118.0075559,33.9061447],[118.0074746,33.9060806],[118.0073279,33.9059894],[118.0071656,33.9059422],[118.006886,33.9058701]]}},{"type":"Feature","id":"way/877508277","properties":{"osm_id":877508277,"name":"泗睢线","highway":"primary","ref":"S325"},"geometry":{"type":"LineString","coordinates":[[118.01,33.9062705],[118.0088761,33.9061178],[118.0079632,33.9059972],[118.007826,33.9059798]]}},{"type":"Feature","id":"way/966770913","properties":{"osm_id":966770913,"highway":"secondary"},"geometry":{"type":"LineString","coordinates":[[117.931276,33.9288179],[117.9312489,33.9289449],[117.9307891,33.9307644],[117.9303693,33.9326413],[117.9303511,33.9327296],[117.9297786,33.9354616],[117.929754,33.9355888],[117.9290209,33.9391038],[117.9277898,33.9450787],[117.9277656,33.9452193],[117.9275459,33.9482453],[117.9274896,33.9490211],[117.9273836,33.9504815],[117.92737,33.9506659],[117.927174,33.9533144],[117.9270934,33.9544034],[117.9270861,33.9545019],[117.9270655,33.954781]]}},{"type":"Feature","id":"way/966770914","properties":{"osm_id":966770914,"highway":"secondary"},"geometry":{"type":"LineString","coordinates":[[117.9268541,33.9547606],[117.9268739,33.9545055],[117.9268819,33.954402],[117.9271724,33.9506566],[117.9271868,33.9504717],[117.9273605,33.9482315],[117.9275985,33.9451903],[117.9276222,33.9450826],[117.9288726,33.9390885],[117.9296035,33.9355725],[117.9296306,33.9354424],[117.9301966,33.9327014],[117.930216,33.932621],[117.9306686,33.9304492],[117.9310071,33.9289523],[117.9310366,33.9288233]]}},{"type":"Feature","id":"way/966770915","properties":{"osm_id":966770915,"highway":"secondary"},"geometry":{"type":"LineString","coordinates":[[117.9271868,33.9504717],[117.9273836,33.9504815],[117.9315882,33.9506923],[117.9373362,33.9509805],[117.9375256,33.95099]]}},{"type":"Feature","id":"way/966770916","properties":{"osm_id":966770916,"highway":"secondary"},"geometry":{"type":"LineString","coordinates":[[117.9375046,33.9511449],[117.9373242,33.9511354],[117.92737,33.9506659],[117.9271724,33.9506566]]}},{"type":"Feature","id":"way/966770917","properties":{"osm_id":966770917,"highway":"secondary"},"geometry":{"type":"LineString","coordinates":[[117.94146,33.9290792],[117.9410769,33.9310353],[117.9406638,33.9328579],[117.9406115,33.9330802],[117.9405956,33.9331562],[117.9399607,33.9361892],[117.939908,33.936422],[117.9398817,33.9365383],[117.9390817,33.9400713],[117.9390361,33.9402728],[117.937934,33.9453596],[117.9379196,33.9455526],[117.937908,33.9457077],[117.9376811,33.9487417],[117.9376724,33.9488579],[117.9375256,33.95099],[117.9375046,33.9511449]]}},{"type":"Feature","id":"way/966770918","properties":{"osm_id":966770918,"highway":"secondary"},"geometry":{"type":"LineString","coordinates":[[117.9373242,33.9511354],[117.9373362,33.9509805],[117.937448,33.9495349],[117.9375102,33.94873],[117.9377448,33.9456963],[117.9377563,33.945548],[117.9377713,33.9453533],[117.9389414,33.9400489],[117.9397191,33.936523],[117.9397448,33.9364064],[117.9404616,33.9331392],[117.9404776,33.9330673],[117.9405313,33.9328407],[117.9409524,33.9309068],[117.9413189,33.9290676],[117.941376,33.9289685],[117.9416831,33.9272308]]}},{"type":"Feature","id":"way/988004132","properties":{"osm_id":988004132,"highway":"secondary"},"geometry":{"type":"LineString","coordinates":[[117.9699465,33.9475198],[117.9607934,33.9469595],[117.9561454,33.9466787],[117.9511566,33.946409],[117.9509994,33.9464059],[117.9477299,33.9462038],[117.937908,33.9457077],[117.9377448,33.9456963],[117.9327127,33.9454499],[117.9277656,33.9452193],[117.9275985,33.9451903]]}},{"type":"Feature","id":"way/988004133","properties":{"osm_id":988004133,"name":"淮徐高速","highway":"motorway","ref":"G2513"},"geometry":{"type":"LineString","coordinates":[[117.9800487,33.9518398],[117.9788538,33.9520306],[117.9753339,33.9525685],[117.9742768,33.952701],[117.9724226,33.9528951],[117.971331,33.9529632],[117.9698311,33.9530415]]}},{"type":"Feature","id":"way/988004134","properties":{"osm_id":988004134,"name":"淮徐高速","highway":"motorway","ref":"G2513"},"geometry":{"type":"LineString","coordinates":[[117.9698303,33.9529298],[117.9712771,33.9528577],[117.97241,33.9527833],[117.9740641,33.9525954],[117.9753398,33.9524404],[117.97883,33.95192],[117.98002,33.95173]]}},{"type":"Feature","id":"way/988004135","properties":{"osm_id":988004135,"name":"淮徐高速","highway":"motorway","ref":"G2513"},"geometry":{"type":"LineString","coordinates":[[117.9698311,33.9530415],[117.9693044,33.953063]]}},{"type":"Feature","id":"way/988004136","properties":{"osm_id":988004136,"name":"淮徐高速","highway":"motorway","ref":"G2513"},"geometry":{"type":"LineString","coordinates":[[117.9693148,33.9529479],[117.9698303,33.9529298]]}},{"type":"Feature","id":"way/988004137","properties":{"osm_id":988004137,"highway":"secondary"},"geometry":{"type":"LineString","coordinates":[[117.9276222,33.9450826],[117.9277898,33.9450787],[117.9327476,33.9452998],[117.9377563,33.945548],[117.9379196,33.9455526],[117.9477368,33.9460698],[117.951021,33.9462454],[117.951178,33.9462577],[117.9561588,33.946546],[117.9608064,33.9468369],[117.9699502,33.9473584]]}},{"type":"Feature","id":"way/1004809360","properties":{"osm_id":1004809360,"name":"下邳大道","highway":"primary"},"geometry":{"type":"LineString","coordinates":[[117.8963633,33.9327405],[117.9037523,33.9311014],[117.9098425,33.929779],[117.9110085,33.9295258],[117.9110679,33.9294353]]}},{"type":"Feature","id":"way/1004809361","properties":{"osm_id":1004809361,"name":"下邳大道","highway":"primary"},"geometry":{"type":"LineString","coordinates":[[117.8957339,33.9328847],[117.8963633,33.9327405]]}},{"type":"Feature","id":"way/1004809367","properties":{"osm_id":1004809367,"highway":"secondary"},"geometry":{"type":"LineString","coordinates":[[117.8961979,33.8833858],[117.8959054,33.883346],[117.893786,33.883097],[117.892785,33.882987],[117.892134,33.882926],[117.889051,33.882605],[117.887139,33.882364],[117.887069,33.882354],[117.886368,33.882233],[117.886248,33.882213],[117.883615,33.881802],[117.882744,33.881661],[117.882553,33.881631],[117.880541,33.881359],[117.88,33.8812896]]}},{"type":"Feature","id":"way/1004925576","properties":{"osm_id":1004925576,"name":"泗睢线","highway":"primary","ref":"S325"},"geometry":{"type":"LineString","coordinates":[[118.0078375,33.9058829],[118.007982,33.9059033],[118.0085539,33.9059782],[118.01,33.9061648]]}},{"type":"Feature","id":"way/1023339840","properties":{"osm_id":1023339840,"highway":"secondary"},"geometry":{"type":"LineString","coordinates":[[117.8944607,33.9192227],[117.8946584,33.91918],[117.8949026,33.9191966]]}},{"type":"Feature","id":"way/1023339841","properties":{"osm_id":1023339841,"highway":"secondary"},"geometry":{"type":"LineString","coordinates":[[117.8949026,33.9191966],[117.8947382,33.9192742],[117.8945568,33.9193493]]}},{"type":"Feature","id":"way/1040935400","properties":{"osm_id":1040935400,"highway":"primary"},"geometry":{"type":"LineString","coordinates":[[117.9548728,33.9169097],[117.9542603,33.9220808],[117.9538212,33.9257098],[117.9535352,33.9278039],[117.95319,33.9303318],[117.9531607,33.9305086]]}},{"type":"Feature","id":"way/1040935401","properties":{"osm_id":1040935401,"highway":"primary"},"geometry":{"type":"LineString","coordinates":[[117.952964,33.9304987],[117.9529939,33.930318],[117.9533242,33.9278995],[117.9536235,33.9257084],[117.9540448,33.9221688],[117.9546747,33.9169119]]}},{"type":"Feature","id":"way/1040935405","properties":{"osm_id":1040935405,"highway":"secondary"},"geometry":{"type":"LineString","coordinates":[[117.9789215,33.9031676],[117.9786682,33.903159],[117.9784677,33.9031758],[117.9783232,33.9032493],[117.9782236,33.9034079],[117.9752591,33.9084577],[117.9750909,33.9119975],[117.9750908,33.9120836]]}},{"type":"Feature","id":"way/1040935406","properties":{"osm_id":1040935406,"highway":"secondary"},"geometry":{"type":"LineString","coordinates":[[117.9749568,33.9120814],[117.9749574,33.9119959],[117.9750573,33.9084529],[117.9781096,33.9033295],[117.9782519,33.9031093],[117.9784338,33.9028948],[117.9785603,33.9027047],[117.978699,33.9025753]]}},{"type":"Feature","id":"way/1040935466","properties":{"osm_id":1040935466,"highway":"primary"},"geometry":{"type":"LineString","coordinates":[[117.9503283,33.9519944],[117.9504811,33.9504141],[117.9505084,33.9502958],[117.9509994,33.9464059],[117.951021,33.9462454],[117.951216,33.9447951],[117.9520061,33.9382755],[117.9520143,33.9382157],[117.9529192,33.9315518],[117.952964,33.9304987]]}},{"type":"Feature","id":"way/1040935467","properties":{"osm_id":1040935467,"highway":"primary"},"geometry":{"type":"LineString","coordinates":[[117.9531607,33.9305086],[117.9531061,33.93162],[117.9521726,33.9382523],[117.9519128,33.9407498],[117.9515046,33.9438732],[117.9513767,33.9448516],[117.951178,33.9462577],[117.9511566,33.946409],[117.9506625,33.9503151],[117.9506353,33.9504325],[117.9504586,33.9520058]]}},{"type":"Feature","id":"way/1044068864","properties":{"osm_id":1044068864,"highway":"primary","ref":"S612;S251"},"geometry":{"type":"LineString","coordinates":[[117.9870841,33.8834589],[117.9870919,33.8833551],[117.9871061,33.8832317],[117.9872611,33.8818851],[117.9873656,33.8808195],[117.9875238,33.8797818],[117.9877136,33.8791092],[117.9878675,33.8786621],[117.9881172,33.8781665],[117.9882813,33.877847],[117.9884891,33.8775276],[117.9888669,33.8769399],[117.989618,33.8761365],[117.9911668,33.8745801],[117.9922495,33.8734892],[117.9938694,33.8719131],[117.9947202,33.8710188],[117.9955208,33.8702337],[117.9962352,33.8695247],[118.0001914,33.8655312],[118.0035057,33.8622506],[118.0049592,33.8608118],[118.0059145,33.86]]}},{"type":"Feature","id":"way/1044068866","properties":{"osm_id":1044068866,"highway":"primary","ref":"S612;S251"},"geometry":{"type":"LineString","coordinates":[[118.0060984,33.86],[118.0050699,33.8608223],[118.003583,33.8623055],[118.0002885,33.8655919],[117.9963032,33.8696023],[117.9955876,33.8703059],[117.9939254,33.8719969],[117.9923417,33.8735544],[117.9912586,33.8746396],[117.9897015,33.8761901],[117.9889704,33.8769856],[117.9885588,33.8775866],[117.9883343,33.87795],[117.9881632,33.8783094],[117.9879897,33.8786816],[117.9878113,33.8791102],[117.9876404,33.8797695],[117.9874593,33.8809061],[117.9873504,33.8819756],[117.9873138,33.882313],[117.9871924,33.883354],[117.987183,33.8834584]]}},{"type":"Feature","id":"way/1056175057","properties":{"osm_id":1056175057,"name":"京岚线","highway":"trunk","ref":"G104"},"geometry":{"type":"LineString","coordinates":[[117.9098527,33.8830072],[117.9098621,33.8828882],[117.910122,33.8796349],[117.9106732,33.8652004],[117.9108745,33.86]]}},{"type":"Feature","id":"way/1056802210","properties":{"osm_id":1056802210,"name":"京岚线","highway":"trunk","ref":"G104"},"geometry":{"type":"LineString","coordinates":[[117.8906161,33.9139994],[117.8901497,33.9132353],[117.8897522,33.9124456],[117.8894613,33.9117886]]}},{"type":"Feature","id":"way/1056802211","properties":{"osm_id":1056802211,"name":"京岚线","highway":"trunk","ref":"G104"},"geometry":{"type":"LineString","coordinates":[[117.8894613,33.9117886],[117.8893078,33.9114478]]}},{"type":"Feature","id":"way/1056802212","properties":{"osm_id":1056802212,"name":"京岚线","highway":"trunk","ref":"G104"},"geometry":{"type":"LineString","coordinates":[[117.8895951,33.9118227],[117.889957,33.9126213],[117.8902059,33.9130972],[117.8907414,33.9139563],[117.8908187,33.9140937]]}},{"type":"Feature","id":"way/1056802213","properties":{"osm_id":1056802213,"name":"京岚线","highway":"trunk","ref":"G104"},"geometry":{"type":"LineString","coordinates":[[117.8894389,33.9114429],[117.8895951,33.9118227]]}},{"type":"Feature","id":"way/1174839604","properties":{"osm_id":1174839604,"highway":"secondary"},"geometry":{"type":"LineString","coordinates":[[117.9440323,33.9120423],[117.9440554,33.9118321],[117.9440547,33.9117326],[117.9441579,33.9077703],[117.9442086,33.9067527],[117.9442039,33.9039538],[117.9442156,33.90244]]}},{"type":"Feature","id":"way/1174839605","properties":{"osm_id":1174839605,"highway":"secondary"},"geometry":{"type":"LineString","coordinates":[[117.9439805,33.9123277],[117.9440323,33.9120423]]}},{"type":"Feature","id":"way/1174839606","properties":{"osm_id":1174839606,"highway":"secondary"},"geometry":{"type":"LineString","coordinates":[[117.9442173,33.9022094],[117.9442182,33.9020906],[117.9442225,33.9006884],[117.9442357,33.8998224],[117.9442994,33.8971801]]}},{"type":"Feature","id":"way/1174839607","properties":{"osm_id":1174839607,"highway":"secondary"},"geometry":{"type":"LineString","coordinates":[[117.9442156,33.90244],[117.9442173,33.9022094]]}},{"type":"Feature","id":"way/1174839612","properties":{"osm_id":1174839612,"highway":"secondary"},"geometry":{"type":"LineString","coordinates":[[117.9301902,33.9118223],[117.9301947,33.9116573],[117.9301993,33.9115379],[117.9302333,33.911205],[117.9304224,33.9076617],[117.9312723,33.9034419],[117.9315701,33.9000008],[117.9316887,33.8974664],[117.9318793,33.8945595],[117.931881,33.894359],[117.9297356,33.8895779],[117.9296908,33.8894781]]}},{"type":"Feature","id":"way/1174839613","properties":{"osm_id":1174839613,"highway":"secondary"},"geometry":{"type":"LineString","coordinates":[[117.9301939,33.9122064],[117.9301902,33.9118223]]}},{"type":"Feature","id":"way/1295634555","properties":{"osm_id":1295634555,"highway":"primary"},"geometry":{"type":"LineString","coordinates":[[117.9577475,33.883162],[117.9577826,33.8832575],[117.9573108,33.8858284],[117.9570559,33.8874275]]}},{"type":"Feature","id":"way/1295634556","properties":{"osm_id":1295634556,"highway":"primary"},"geometry":{"type":"LineString","coordinates":[[117.9569256,33.887422],[117.9571898,33.8858258],[117.957663,33.8832571],[117.9577475,33.883162]]}},{"type":"Feature","id":"way/1295634557","properties":{"osm_id":1295634557,"highway":"primary"},"geometry":{"type":"LineString","coordinates":[[117.9568241,33.8882714],[117.9569256,33.887422]]}},{"type":"Feature","id":"way/1295634558","properties":{"osm_id":1295634558,"highway":"primary"},"geometry":{"type":"LineString","coordinates":[[117.9570559,33.8874275],[117.956968,33.8882867]]}},{"type":"Feature","id":"way/1295634559","properties":{"osm_id":1295634559,"highway":"primary"},"geometry":{"type":"LineString","coordinates":[[117.9496378,33.9579425],[117.9496009,33.9575795],[117.9500071,33.9544986]]}},{"type":"Feature","id":"way/1295634560","properties":{"osm_id":1295634560,"highway":"primary"},"geometry":{"type":"LineString","coordinates":[[117.9501302,33.9545081],[117.9497335,33.9575961],[117.9496378,33.9579425]]}},{"type":"Feature","id":"way/1295634561","properties":{"osm_id":1295634561,"highway":"primary"},"geometry":{"type":"LineString","coordinates":[[117.9504586,33.9520058],[117.9501302,33.9545081]]}},{"type":"Feature","id":"way/1295634562","properties":{"osm_id":1295634562,"highway":"primary"},"geometry":{"type":"LineString","coordinates":[[117.9500071,33.9544986],[117.9503283,33.9519944]]}},{"type":"Feature","id":"way/1303538307","properties":{"osm_id":1303538307,"highway":"secondary"},"geometry":{"type":"LineString","coordinates":[[117.9417314,33.9269691],[117.941979,33.9255621],[117.9425093,33.9224429],[117.9429643,33.9197509],[117.9433497,33.9167917],[117.9437177,33.9142479],[117.9439302,33.9125827],[117.9439805,33.9123277]]}},{"type":"Feature","id":"way/1303538308","properties":{"osm_id":1303538308,"highway":"secondary"},"geometry":{"type":"LineString","coordinates":[[117.9416831,33.9272308],[117.9417314,33.9269691]]}},{"type":"Feature","id":"way/1303538319","properties":{"osm_id":1303538319,"highway":"primary"},"geometry":{"type":"LineString","coordinates":[[117.9552454,33.9124318],[117.9552804,33.9120968]]}},{"type":"Feature","id":"way/1303538320","properties":{"osm_id":1303538320,"highway":"primary"},"geometry":{"type":"LineString","coordinates":[[117.9546747,33.9169119],[117.9552454,33.9124318]]}},{"type":"Feature","id":"way/1303538321","properties":{"osm_id":1303538321,"highway":"primary"},"geometry":{"type":"LineString","coordinates":[[117.9553613,33.9124496],[117.9548728,33.9169097]]}},{"type":"Feature","id":"way/1303538322","properties":{"osm_id":1303538322,"highway":"primary"},"geometry":{"type":"LineString","coordinates":[[117.9554152,33.9120908],[117.9553613,33.9124496]]}},{"type":"Feature","id":"way/1416692920","properties":{"osm_id":1416692920,"highway":"primary_link"},"geometry":{"type":"LineString","coordinates":[[117.8920503,33.9135875],[117.8917033,33.9137551],[117.8913883,33.9138785],[117.8911795,33.9139842],[117.8910768,33.9140518],[117.8910237,33.9141458],[117.8909954,33.9142104],[117.8909884,33.9142897],[117.8910287,33.9144312]]}},{"type":"Feature","id":"way/1416692921","properties":{"osm_id":1416692921,"highway":"trunk_link"},"geometry":{"type":"LineString","coordinates":[[117.8916494,33.915501],[117.8911618,33.9149417],[117.8909813,33.9146774],[117.8908397,33.9144982],[117.8907548,33.9144277],[117.8906238,33.914366],[117.8904822,33.9143337],[117.8903159,33.9143279],[117.8898427,33.9144299]]}},{"type":"Feature","id":"way/1416692922","properties":{"osm_id":1416692922,"highway":"trunk_link"},"geometry":{"type":"LineString","coordinates":[[117.8898214,33.9143041],[117.8901426,33.9141017],[117.8902523,33.9140224],[117.8903408,33.9138873],[117.8903373,33.9137464],[117.8903125,33.9136171],[117.8901497,33.9132353]]}},{"type":"Feature","id":"way/1416692923","properties":{"osm_id":1416692923,"highway":"trunk_link"},"geometry":{"type":"LineString","coordinates":[[117.8902059,33.9130972],[117.8904151,33.9133498],[117.8905744,33.9135819],[117.890677,33.9137258],[117.8907549,33.9137728],[117.8908823,33.9137992],[117.890992,33.9138022],[117.8911477,33.9137552],[117.8915747,33.9136419]]}},{"type":"Feature","id":"way/1458227909","properties":{"osm_id":1458227909,"name":"京岚线","highway":"trunk","ref":"G104"},"geometry":{"type":"LineString","coordinates":[[117.8862096,33.9151903],[117.8860745,33.9152033],[117.8838332,33.9154146],[117.8827746,33.9154744],[117.8814192,33.9154591],[117.8800299,33.9153699],[117.88,33.9153682]]}},{"type":"Feature","id":"way/1458227910","properties":{"osm_id":1458227910,"name":"京岚线","highway":"trunk","ref":"G104"},"geometry":{"type":"LineString","coordinates":[[117.88,33.9152403],[117.8800363,33.9152423],[117.8814,33.9153211],[117.8827575,33.9153323],[117.8838147,33.9152739],[117.8860557,33.9150563],[117.8861891,33.9150435]]}},{"type":"Feature","id":"way/1458227911","properties":{"osm_id":1458227911,"name":"京岚线","highway":"trunk","ref":"G104"},"geometry":{"type":"LineString","coordinates":[[117.8906926,33.9141444],[117.8906161,33.9139994]]}},{"type":"Feature","id":"way/1458230885","properties":{"osm_id":1458230885,"name":"元府东路","highway":"primary"},"geometry":{"type":"LineString","coordinates":[[117.9626763,33.9017664],[117.9621282,33.9017031]]}},{"type":"Feature","id":"way/1458230886","properties":{"osm_id":1458230886,"name":"元府东路","highway":"primary"},"geometry":{"type":"LineString","coordinates":[[117.9492155,33.8997229],[117.9561098,33.9006855]]}},{"type":"Feature","id":"way/1458230887","properties":{"osm_id":1458230887,"name":"元府东路","highway":"primary"},"geometry":{"type":"LineString","coordinates":[[117.962105,33.9016128],[117.9626951,33.901684]]}},{"type":"Feature","id":"way/1458230888","properties":{"osm_id":1458230888,"name":"中央大街","highway":"primary"},"geometry":{"type":"LineString","coordinates":[[117.9812315,33.9121852],[117.9807111,33.9121776],[117.9750908,33.9120836],[117.9749568,33.9120814],[117.9722074,33.9120353],[117.962852,33.9119322],[117.9554227,33.9119192]]}},{"type":"Feature","id":"way/1458230889","properties":{"osm_id":1458230889,"name":"中央大街","highway":"primary"},"geometry":{"type":"LineString","coordinates":[[117.9554271,33.9118183],[117.9628344,33.9118374],[117.9659185,33.9118644],[117.9690134,33.9119008],[117.9722092,33.9119443],[117.9749574,33.9119959],[117.9750909,33.9119975],[117.9807325,33.9120836],[117.9812436,33.9120999]]}},{"type":"Feature","id":"way/1458230890","properties":{"osm_id":1458230890,"name":"元府东路","highway":"primary"},"geometry":{"type":"LineString","coordinates":[[117.9621282,33.9017031],[117.9619929,33.9016825],[117.9595715,33.9013077],[117.9562355,33.9007856],[117.9561052,33.900764]]}},{"type":"Feature","id":"way/1458230891","properties":{"osm_id":1458230891,"name":"元府东路","highway":"primary"},"geometry":{"type":"LineString","coordinates":[[117.9561098,33.9006855],[117.9562397,33.9007025],[117.9595569,33.9012254],[117.9619928,33.9015972],[117.962105,33.9016128]]}},{"type":"Feature","id":"way/1458230893","properties":{"osm_id":1458230893,"highway":"secondary"},"geometry":{"type":"LineString","coordinates":[[117.9499456,33.8886107],[117.9499147,33.888981],[117.9499037,33.8890816]]}},{"type":"Feature","id":"way/1458230894","properties":{"osm_id":1458230894,"highway":"primary"},"geometry":{"type":"LineString","coordinates":[[117.94922,33.8998241],[117.9487884,33.899792]]}},{"type":"Feature","id":"way/1458230895","properties":{"osm_id":1458230895,"highway":"primary"},"geometry":{"type":"LineString","coordinates":[[117.9487884,33.899792],[117.9485022,33.8997707]]}},{"type":"Feature","id":"way/1458230896","properties":{"osm_id":1458230896,"name":"京岚线","highway":"trunk","ref":"G104"},"geometry":{"type":"LineString","coordinates":[[117.8890412,33.8896884],[117.889076,33.8895895],[117.8892263,33.8891553],[117.8893804,33.8887761]]}},{"type":"Feature","id":"way/1458230897","properties":{"osm_id":1458230897,"name":"京岚线","highway":"trunk","ref":"G104"},"geometry":{"type":"LineString","coordinates":[[117.8895356,33.8887476],[117.8893636,33.889174],[117.8892119,33.889597],[117.8891789,33.8896872]]}},{"type":"Feature","id":"way/1458230899","properties":{"osm_id":1458230899,"highway":"primary","ref":"S325;S251;S612"},"geometry":{"type":"LineString","coordinates":[[117.9870919,33.8833551],[117.9871924,33.883354],[117.9890346,33.8833727],[117.9926652,33.8834093],[117.9936683,33.8835118],[117.9947069,33.8836751],[117.9956378,33.8838834],[117.9959831,33.8839593],[117.9972222,33.8843267],[117.9988027,33.8849755],[118.0004436,33.8858854],[118.0014441,33.8866247],[118.0022627,33.8873068],[118.0029005,33.8879717]]}},{"type":"Feature","id":"way/1458230900","properties":{"osm_id":1458230900,"highway":"primary","ref":"S325;S251;S612"},"geometry":{"type":"LineString","coordinates":[[118.0028227,33.8880541],[118.0026881,33.8879173],[118.0020848,33.8873228],[118.0013716,33.8867071],[118.0003631,33.8859477],[117.9987242,33.8850554],[117.9971659,33.8843891],[117.9959428,33.8840306],[117.9956557,33.8839554],[117.9946833,33.8837353],[117.9936469,33.8835897],[117.992633,33.8835073],[117.9890491,33.8834593],[117.9885886,33.8834718],[117.987183,33.8834584],[117.9870841,33.8834589]]}},{"type":"Feature","id":"way/1554703939","properties":{"osm_id":1554703939,"name":"下邳大道","highway":"primary"},"geometry":{"type":"LineString","coordinates":[[117.8957837,33.9329709],[117.8952147,33.9330981],[117.8936036,33.9334547],[117.89231,33.9337104],[117.891105,33.9338315],[117.8900403,33.9338663],[117.8881142,33.9338147],[117.88,33.933544]]}},{"type":"Feature","id":"way/1554703940","properties":{"osm_id":1554703940,"name":"下邳大道","highway":"primary"},"geometry":{"type":"LineString","coordinates":[[117.9110679,33.9294353],[117.9111407,33.929529],[117.9111018,33.929597],[117.9107684,33.929678],[117.9037477,33.9312144],[117.8964126,33.9328309]]}},{"type":"Feature","id":"way/1554703941","properties":{"osm_id":1554703941,"name":"下邳大道","highway":"primary"},"geometry":{"type":"LineString","coordinates":[[117.8964126,33.9328309],[117.8957837,33.9329709]]}},{"type":"Feature","id":"way/1554703942","properties":{"osm_id":1554703942,"highway":"primary_link"},"geometry":{"type":"LineString","coordinates":[[117.9098425,33.929779],[117.9098945,33.9296443],[117.9098783,33.9295077],[117.9098011,33.9294014]]}},{"type":"Feature","id":"way/1554703948","properties":{"osm_id":1554703948,"name":"淮徐高速","highway":"motorway","ref":"G2513"},"geometry":{"type":"LineString","coordinates":[[117.9471101,33.9532024],[117.9450596,33.9532801],[117.9421862,33.9534843],[117.9400442,33.9537403],[117.9374519,33.9541282]]}},{"type":"Feature","id":"way/1554703949","properties":{"osm_id":1554703949,"name":"淮徐高速","highway":"motorway","ref":"G2513"},"geometry":{"type":"LineString","coordinates":[[117.937475,33.9539908],[117.9399113,33.9536307],[117.9422127,33.9533734],[117.94508,33.9531733],[117.9471166,33.9530775]]}},{"type":"Feature","id":"way/1554703950","properties":{"osm_id":1554703950,"name":"淮徐高速","highway":"motorway","ref":"G2513"},"geometry":{"type":"LineString","coordinates":[[117.9366123,33.954135],[117.937475,33.9539908]]}},{"type":"Feature","id":"way/1554703951","properties":{"osm_id":1554703951,"name":"淮徐高速","highway":"motorway","ref":"G2513"},"geometry":{"type":"LineString","coordinates":[[117.9374519,33.9541282],[117.9365998,33.9542706]]}},{"type":"Feature","id":"way/1554703952","properties":{"osm_id":1554703952,"name":"淮徐高速","highway":"motorway","ref":"G2513"},"geometry":{"type":"LineString","coordinates":[[117.9365998,33.9542706],[117.9341998,33.9547105],[117.932337,33.9551653],[117.9308546,33.9555539],[117.9294277,33.9559425],[117.9282785,33.9562945],[117.927422,33.9565671],[117.9252811,33.9573077],[117.9233841,33.9580071],[117.9217689,33.9586953],[117.9201179,33.9594414],[117.9189529,33.96]]}},{"type":"Feature","id":"way/1554703969","properties":{"osm_id":1554703969,"highway":"secondary"},"geometry":{"type":"LineString","coordinates":[[117.9850311,33.9219708],[117.9808054,33.9219446]]}},{"type":"Feature","id":"way/1554703970","properties":{"osm_id":1554703970,"highway":"secondary"},"geometry":{"type":"LineString","coordinates":[[117.9808054,33.9219446],[117.9801413,33.9219405]]}},{"type":"Feature","id":"way/1554703971","properties":{"osm_id":1554703971,"name":"中央大街","highway":"primary"},"geometry":{"type":"LineString","coordinates":[[117.9817547,33.9121162],[117.9854595,33.9123145],[117.9917643,33.9125396],[117.9970599,33.9126925],[117.9989609,33.9127376],[118.0050857,33.9128555],[118.0055195,33.9129483],[118.005621,33.91297]]}},{"type":"Feature","id":"way/1554703972","properties":{"osm_id":1554703972,"name":"中央大街","highway":"primary"},"geometry":{"type":"LineString","coordinates":[[117.9812436,33.9120999],[117.9817547,33.9121162]]}},{"type":"Feature","id":"way/1554703973","properties":{"osm_id":1554703973,"name":"中央大街","highway":"primary"},"geometry":{"type":"LineString","coordinates":[[118.0055852,33.9130579],[118.0054841,33.9130354],[118.0050687,33.912945],[117.9989546,33.9128344],[117.9917581,33.9126439],[117.9854533,33.9124221],[117.9817512,33.9122007]]}},{"type":"Feature","id":"way/1554703974","properties":{"osm_id":1554703974,"name":"中央大街","highway":"primary"},"geometry":{"type":"LineString","coordinates":[[117.9817512,33.9122007],[117.9812315,33.9121852]]}}]}
